{"type":"FeatureCollection","features":[{"type":"Feature","properties":{"nom":"Paris","code":"75056","population":2103778,"codeDepartement":"75"},"geometry":{"type":"Polygon","coordinates":[[[2.351984,48.901485],[2.355239,48.901548],[2.36562,48.901758],[2.367964,48.90181],[2.369103,48.901823],[2.370302,48.901848],[2.372017,48.901885],[2.383566,48.902126],[2.38453,48.902148],[2.385582,48.901931],[2.388185,48.901382],[2.389332,48.901161],[2.390649,48.900927],[2.390837,48.900907],[2.391772,48.900383],[2.392379,48.900033],[2.39279,48.899812],[2.393434,48.899438],[2.395518,48.898265],[2.395613,48.898166],[2.396919,48.895861],[2.397609,48.894722],[2.397668,48.894606],[2.397882,48.893873],[2.397999,48.893529],[2.398236,48.89264],[2.398903,48.889681],[2.398942,48.889532],[2.399136,48.888532],[2.399252,48.885362],[2.400107,48.883821],[2.400582,48.883411],[2.401507,48.882631],[2.404576,48.881269],[2.405612,48.881007],[2.408068,48.88051],[2.40936,48.880256],[2.410682,48.878593],[2.41082,48.878436],[2.412453,48.876443],[2.413431,48.87314],[2.413646,48.872438],[2.41372,48.871558],[2.413812,48.870744],[2.413956,48.869216],[2.413961,48.867513],[2.414012,48.866486],[2.413979,48.865384],[2.413976,48.864978],[2.413951,48.864712],[2.414137,48.863373],[2.414266,48.862099],[2.41437,48.860649],[2.41442,48.860242],[2.414702,48.858704],[2.414947,48.857272],[2.415121,48.856157],[2.415286,48.855178],[2.415476,48.854165],[2.415986,48.85136],[2.416326,48.849371],[2.416341,48.849234],[2.41635,48.8487],[2.416083,48.847258],[2.415971,48.846623],[2.415768,48.845445],[2.415664,48.844996],[2.415299,48.84385],[2.41485,48.842379],[2.414248,48.840488],[2.414047,48.83976],[2.413577,48.838278],[2.412852,48.836217],[2.412246,48.834539],[2.411472,48.833929],[2.412587,48.833779],[2.413505,48.833723],[2.413921,48.833712],[2.414633,48.833728],[2.41547,48.833794],[2.415968,48.833864],[2.416608,48.833997],[2.417338,48.834189],[2.41935,48.834832],[2.421016,48.835398],[2.422139,48.835798],[2.421801,48.836348],[2.421586,48.836756],[2.421447,48.837219],[2.421254,48.838161],[2.421062,48.838891],[2.42093,48.839329],[2.420719,48.839806],[2.420475,48.840314],[2.420304,48.840564],[2.420133,48.840753],[2.419776,48.841082],[2.419539,48.841449],[2.419394,48.841997],[2.419357,48.842498],[2.419469,48.842692],[2.419735,48.84294],[2.419849,48.843102],[2.41986,48.843456],[2.420115,48.843601],[2.421848,48.844437],[2.422225,48.84423],[2.422435,48.844058],[2.422653,48.843837],[2.422966,48.843417],[2.423283,48.842912],[2.423492,48.842656],[2.423948,48.842196],[2.424347,48.84195],[2.424535,48.841886],[2.42492,48.841808],[2.425819,48.841715],[2.427575,48.841571],[2.42813,48.841528],[2.43064,48.841299],[2.431533,48.841228],[2.432249,48.841161],[2.432916,48.841114],[2.433545,48.841046],[2.43367,48.841198],[2.435777,48.84102],[2.437184,48.840893],[2.437282,48.841326],[2.437958,48.844664],[2.439489,48.844521],[2.44052,48.84444],[2.440616,48.844892],[2.440801,48.844879],[2.440864,48.845252],[2.440681,48.845247],[2.440758,48.845964],[2.441832,48.845916],[2.444136,48.845878],[2.444921,48.845869],[2.446646,48.845802],[2.446497,48.844968],[2.446969,48.84494],[2.447853,48.844863],[2.448654,48.844781],[2.449527,48.844677],[2.450814,48.844502],[2.451866,48.844329],[2.452621,48.844217],[2.453503,48.844101],[2.455169,48.843919],[2.456779,48.843708],[2.458615,48.843428],[2.459873,48.843181],[2.461008,48.842938],[2.461794,48.842731],[2.462446,48.842532],[2.462848,48.84239],[2.463741,48.842023],[2.464181,48.841809],[2.464903,48.841406],[2.465411,48.841066],[2.465699,48.840836],[2.466164,48.840423],[2.466639,48.839925],[2.466929,48.839596],[2.467319,48.839099],[2.467787,48.838577],[2.468076,48.838303],[2.468547,48.837902],[2.469236,48.837289],[2.469473,48.837048],[2.469662,48.836788],[2.469803,48.836547],[2.469851,48.836399],[2.469834,48.835798],[2.469724,48.835195],[2.469483,48.834547],[2.469197,48.83412],[2.468891,48.833797],[2.468485,48.833507],[2.467882,48.833204],[2.467329,48.832952],[2.466939,48.832749],[2.466569,48.832521],[2.466273,48.832296],[2.465823,48.83187],[2.465575,48.831555],[2.465584,48.831471],[2.465426,48.83132],[2.465273,48.831018],[2.465077,48.830568],[2.464806,48.829684],[2.464702,48.829277],[2.46465,48.828956],[2.464608,48.828535],[2.464662,48.827623],[2.465095,48.827541],[2.465232,48.827667],[2.465434,48.827567],[2.466178,48.827328],[2.465731,48.826226],[2.465503,48.825586],[2.46532,48.824979],[2.465189,48.824957],[2.465299,48.824705],[2.465044,48.824084],[2.464026,48.822303],[2.463725,48.821678],[2.463403,48.821149],[2.462867,48.820178],[2.462697,48.819369],[2.462529,48.819246],[2.462696,48.81906],[2.461205,48.818355],[2.46053,48.818027],[2.459541,48.817571],[2.459115,48.817365],[2.459414,48.816848],[2.459119,48.816997],[2.458717,48.817034],[2.458054,48.81702],[2.455919,48.817082],[2.455102,48.817076],[2.453452,48.817149],[2.452526,48.817317],[2.451315,48.817619],[2.450558,48.817773],[2.449671,48.817893],[2.448935,48.81793],[2.447786,48.817966],[2.446618,48.81793],[2.445958,48.817928],[2.444713,48.817897],[2.444181,48.817875],[2.443731,48.817892],[2.442326,48.817904],[2.441855,48.817944],[2.441012,48.818093],[2.440137,48.818259],[2.439854,48.818291],[2.4394,48.81828],[2.437329,48.818177],[2.437442,48.819111],[2.437345,48.819187],[2.436925,48.819365],[2.436332,48.819543],[2.436028,48.819593],[2.434902,48.819669],[2.434655,48.819557],[2.434144,48.819216],[2.434262,48.819911],[2.434288,48.820158],[2.434108,48.820297],[2.433094,48.820991],[2.43248,48.821426],[2.43289,48.821693],[2.432634,48.821901],[2.432195,48.82162],[2.430371,48.822877],[2.430628,48.823157],[2.429861,48.823432],[2.429227,48.823622],[2.428768,48.823733],[2.427958,48.8239],[2.427421,48.823987],[2.426575,48.824097],[2.425481,48.824176],[2.424654,48.824191],[2.42345,48.824158],[2.422878,48.82413],[2.421826,48.824059],[2.420678,48.824048],[2.419963,48.82408],[2.419387,48.824156],[2.418603,48.824312],[2.417763,48.824531],[2.417131,48.824649],[2.416513,48.824736],[2.415976,48.824777],[2.415083,48.824782],[2.413785,48.824723],[2.413111,48.824718],[2.412623,48.824737],[2.411757,48.824803],[2.410907,48.82494],[2.41027,48.825087],[2.409955,48.825183],[2.409175,48.825502],[2.408675,48.825767],[2.408085,48.826112],[2.407589,48.82643],[2.40655,48.827191],[2.405816,48.827797],[2.405376,48.828134],[2.404994,48.828403],[2.403814,48.82906],[2.403551,48.829175],[2.402871,48.829415],[2.402237,48.82959],[2.400679,48.829095],[2.399775,48.828791],[2.399205,48.828626],[2.397894,48.828329],[2.396843,48.828054],[2.395707,48.827727],[2.395179,48.827645],[2.39434,48.827539],[2.393993,48.827401],[2.392762,48.826855],[2.391022,48.826117],[2.390072,48.825692],[2.389445,48.825345],[2.3888,48.825106],[2.387894,48.824805],[2.386941,48.824463],[2.385226,48.823729],[2.383142,48.82299],[2.381524,48.822411],[2.380767,48.821701],[2.379478,48.821273],[2.379083,48.821158],[2.377884,48.82078],[2.376526,48.820319],[2.376077,48.820156],[2.375597,48.82001],[2.374589,48.819681],[2.373978,48.819506],[2.373705,48.819413],[2.372608,48.819074],[2.371497,48.818702],[2.370643,48.818433],[2.369484,48.81808],[2.367102,48.817301],[2.365641,48.816849],[2.365029,48.816671],[2.364204,48.816398],[2.363329,48.816148],[2.360158,48.816057],[2.356895,48.815972],[2.356232,48.815943],[2.355852,48.815923],[2.354735,48.816813],[2.353049,48.818034],[2.352392,48.818551],[2.351254,48.817962],[2.350489,48.817614],[2.34903,48.816964],[2.348763,48.816855],[2.347178,48.816102],[2.34692,48.816018],[2.346633,48.815986],[2.346371,48.815994],[2.345544,48.816078],[2.345191,48.816092],[2.344755,48.816073],[2.344356,48.816016],[2.344464,48.815611],[2.344448,48.815562],[2.343903,48.815767],[2.343157,48.816045],[2.342877,48.816116],[2.342186,48.81625],[2.341684,48.81633],[2.340512,48.816372],[2.339543,48.816436],[2.338007,48.816515],[2.335581,48.816655],[2.333711,48.816771],[2.331898,48.817011],[2.332461,48.818247],[2.330414,48.818704],[2.325562,48.819774],[2.321661,48.820629],[2.320597,48.820867],[2.314146,48.822291],[2.306959,48.823868],[2.303185,48.824727],[2.301866,48.825002],[2.301315,48.825126],[2.300177,48.825375],[2.292192,48.827142],[2.290235,48.827989],[2.289408,48.828334],[2.286694,48.829452],[2.284719,48.830291],[2.283586,48.830796],[2.282671,48.831153],[2.279945,48.832141],[2.279052,48.83249],[2.278827,48.832293],[2.276297,48.830232],[2.275304,48.829435],[2.275276,48.829446],[2.272928,48.828039],[2.272793,48.82792],[2.267826,48.827836],[2.267626,48.827969],[2.267339,48.831532],[2.269645,48.832857],[2.269931,48.833011],[2.268102,48.834428],[2.267789,48.834585],[2.267475,48.834593],[2.262792,48.833923],[2.261492,48.83407],[2.258503,48.834419],[2.256995,48.834601],[2.256538,48.834643],[2.255144,48.83481],[2.254831,48.835184],[2.253547,48.836676],[2.25239,48.838036],[2.252011,48.838493],[2.251915,48.838641],[2.251709,48.838822],[2.251309,48.84206],[2.251216,48.84289],[2.251735,48.843974],[2.251909,48.844291],[2.252347,48.845191],[2.252478,48.845486],[2.250767,48.845531],[2.250516,48.845555],[2.249867,48.84573],[2.245935,48.846745],[2.245515,48.846856],[2.243235,48.847431],[2.242362,48.847658],[2.241761,48.848135],[2.241516,48.848408],[2.2405,48.849316],[2.240184,48.849571],[2.23977,48.849832],[2.23918,48.850042],[2.238966,48.850094],[2.237379,48.850435],[2.235663,48.850818],[2.233576,48.851304],[2.233194,48.85138],[2.232297,48.851587],[2.231537,48.85174],[2.230011,48.852065],[2.229228,48.852224],[2.226594,48.852812],[2.226233,48.852962],[2.225912,48.853035],[2.224219,48.853517],[2.224269,48.855088],[2.224315,48.855696],[2.224407,48.856154],[2.224518,48.856538],[2.22532,48.858516],[2.22567,48.859405],[2.225968,48.860015],[2.226992,48.862],[2.227181,48.862385],[2.227361,48.862829],[2.227749,48.863844],[2.228139,48.864922],[2.228377,48.86538],[2.229797,48.867072],[2.230181,48.867504],[2.230659,48.86808],[2.231376,48.868728],[2.231736,48.869069],[2.232175,48.869285],[2.232868,48.869585],[2.233702,48.869898],[2.235576,48.870523],[2.236657,48.870821],[2.237436,48.871022],[2.238434,48.871311],[2.239593,48.871705],[2.24035,48.872033],[2.240945,48.872342],[2.241237,48.87251],[2.241856,48.872901],[2.242723,48.873543],[2.243269,48.874017],[2.243948,48.874712],[2.245157,48.875904],[2.245704,48.876459],[2.24625,48.876228],[2.246533,48.876142],[2.254817,48.874081],[2.25541,48.874264],[2.258467,48.880387],[2.258861,48.880333],[2.264611,48.879622],[2.277487,48.877968],[2.27947,48.878532],[2.279949,48.878573],[2.280536,48.881107],[2.280632,48.8816],[2.280897,48.882792],[2.281014,48.882971],[2.284538,48.885574],[2.28446,48.885639],[2.285642,48.886555],[2.290529,48.888956],[2.291148,48.889302],[2.291634,48.889456],[2.292941,48.889619],[2.294041,48.889744],[2.295013,48.889875],[2.295475,48.890096],[2.297327,48.891054],[2.29811,48.891444],[2.298628,48.891717],[2.300588,48.892629],[2.301836,48.89324],[2.303319,48.893934],[2.303774,48.894154],[2.305715,48.89509],[2.307687,48.89601],[2.310673,48.897131],[2.312319,48.897725],[2.312451,48.897782],[2.31852,48.899638],[2.319887,48.90046],[2.320434,48.900776],[2.322073,48.900828],[2.322174,48.900794],[2.32327,48.900813],[2.325836,48.900954],[2.326534,48.900977],[2.330147,48.901044],[2.331996,48.901078],[2.337938,48.901208],[2.339771,48.901245],[2.344985,48.901345],[2.351984,48.901485]]]}}]}